NORAD_CAT_ID,OBJECT_NAME,OBJECT_TYPE,EPOCH,MEAN_MOTION,ECCENTRICITY,INCLINATION,RA_OF_ASC_NODE,ARG_OF_PERICENTER,MEAN_ANOMALY,BSTAR,MEAN_MOTION_DOT,MEAN_MOTION_DDOT,TLE_LINE0,TLE_LINE1,TLE_LINE2,SEMIMAJOR_AXIS,PERIOD,APOGEE,PERIGEE,DECAYED
52627.0,STARLINK-3992,PAYLOAD,2022-11-12 17:27:27,15.08840396,0.0002725,53.2163,314.3297,31.4085,328.7069,3.1102e-05,2.07e-06,0.0,0 STARLINK-3992,1 52627U 22052AF  22316.72740105  .00000207  00000-0  31102-4 0  9993,2 52627  53.2163 314.3297 0002725  31.4085 328.7069 15.08840396 28256,6917.879,95.438,541.629,537.859,0.0
52627.0,STARLINK-3992,PAYLOAD,2022-11-13 02:59:45,15.08850981,0.0002718,53.2161,312.5454,31.0698,329.0454,0.00014202,1.973e-05,0.0,0 STARLINK-3992,1 52627U 22052AF  22317.12483518  .00001973  00000-0  14202-3 0  9992,2 52627  53.2161 312.5454 0002718  31.0698 329.0454 15.08850981 28317,6917.847,95.437,541.592,537.832,0.0
52627.0,STARLINK-3992,PAYLOAD,2022-11-13 09:21:18,15.08844362,0.0002602,53.2167,311.3555,28.2607,331.8526,2.1452e-05,5.3e-07,0.0,0 STARLINK-3992,1 52627U 22052AF  22317.38979679  .00000053  00000-0  21452-4 0  9992,2 52627  53.2167 311.3555 0002602  28.2607 331.8526 15.08844362 27981,6917.8669999999975,95.437,541.5319999999998,537.932,0.0
52627.0,STARLINK-3992,PAYLOAD,2022-11-13 10:56:41,15.08844032,0.0002569,53.2167,311.0578,29.0096,331.1038,2.5705e-05,1.21e-06,0.0,0 STARLINK-3992,1 52627U 22052AF  22317.45603690  .00000121  00000-0  25705-4 0  9998,2 52627  53.2167 311.0578 0002569  29.0096 331.1038 15.08844032 28364,6917.868,95.437,541.51,537.956,0.0
52627.0,STARLINK-3992,PAYLOAD,2022-11-14 10:47:28,15.08844788,0.0002563,53.2169,306.5973,32.7027,327.4124,0.00011419,1.53e-05,0.0,0 STARLINK-3992,1 52627U 22052AF  22318.44963739  .00001530  00000-0  11419-3 0  9992,2 52627  53.2169 306.5973 0002563  32.7027 327.4124 15.08844788 28141,6917.866,95.437,541.504,537.9580000000002,0.0
52627.0,STARLINK-3992,PAYLOAD,2022-11-15 01:05:56,15.08841321,0.0002614,53.2167,303.9213,32.2401,327.875,3.6841e-05,2.98e-06,0.0,0 STARLINK-3992,1 52627U 22052AF  22319.04579856  .00000298  00000-0  36841-4 0  9999,2 52627  53.2167 303.9213 0002614  32.2401 327.8750 15.08841321 28605,6917.876,95.437,541.55,537.933,0.0
52627.0,STARLINK-3992,PAYLOAD,2022-11-15 10:38:15,15.08844539,0.0002662,53.2167,302.1369,28.5136,331.6001,3.9942e-05,3.47e-06,0.0,0 STARLINK-3992,1 52627U 22052AF  22319.44323646  .00000347  00000-0  39942-4 0  9997,2 52627  53.2167 302.1369 0002662  28.5136 331.6001 15.08844539 28295,6917.8669999999975,95.437,541.573,537.89,0.0
52627.0,STARLINK-3992,PAYLOAD,2022-11-16 00:56:44,15.08833235,0.0002609,53.2165,299.4607,31.5883,328.5265,-8.2002e-06,-4.19e-06,0.0,0 STARLINK-3992,1 52627U 22052AF  22320.03940331 -.00000419  00000-0 -82002-5 0  9998,2 52627  53.2165 299.4607 0002609  31.5883 328.5265 15.08833235 28759,6917.901,95.438,541.571,537.961,0.0
52627.0,STARLINK-3992,PAYLOAD,2022-11-16 10:29:03,15.08837621,0.0002551,53.2173,297.6772,31.0142,329.1001,7.9735e-05,9.81e-06,0.0,0 STARLINK-3992,1 52627U 22052AF  22320.43684289  .00000981  00000-0  79735-4 0  9999,2 52627  53.2173 297.6772 0002551  31.0142 329.1001 15.08837621 28444,6917.888000000001,95.438,541.5169999999998,537.988,0.0
52627.0,STARLINK-3992,PAYLOAD,2022-11-16 15:15:13,15.08830534,0.0002585,53.2171,296.7844,31.1581,328.9564,-8.815499999999999e-06,-4.29e-06,0.0,0 STARLINK-3992,1 52627U 22052AF  22320.63557009 -.00000429  00000-0 -88155-5 0  9996,2 52627  53.2171 296.7844 0002585  31.1581 328.9564 15.08830534 28477,6917.909000000002,95.438,541.563,537.986,0.0
52627.0,STARLINK-3992,PAYLOAD,2022-11-17 02:22:54,15.08836456,0.0002494,53.2171,294.7026,29.3794,330.7338,8.5336e-05,1.07e-05,0.0,0 STARLINK-3992,1 52627U 22052AF  22321.09924498  .00001070  00000-0  85336-4 0  9995,2 52627  53.2171 294.7026 0002494  29.3794 330.7338 15.08836456 28919,6917.891,95.438,541.482,538.031,0.0
52627.0,STARLINK-3992,PAYLOAD,2022-11-17 10:19:50,15.08843305,0.0002531,53.2171,293.2159,31.4687,328.6456,0.00014821,2.071e-05,0.0,0 STARLINK-3992,1 52627U 22052AF  22321.43044150  .00002071  00000-0  14821-3 0  9993,2 52627  53.2171 293.2159 0002531  31.4687 328.6456 15.08843305 28599,6917.87,95.437,541.486,537.984,0.0
52627.0,STARLINK-3992,PAYLOAD,2022-11-18 10:10:38,15.08835767,0.0002596,53.2174,288.7553,24.6199,335.4917,-5.7745e-05,-1.207e-05,0.0,0 STARLINK-3992,1 52627U 22052AF  22322.42405315 -.00001207  00000-0 -57745-4 0  9992,2 52627  53.2174 288.7553 0002596  24.6199 335.4917 15.08835767 29112,6917.893,95.438,541.554,537.962,0.0
52627.0,STARLINK-3992,PAYLOAD,2022-11-18 14:56:47,15.08836988,0.0002482,53.2175,287.8639,33.1323,326.9825,3.1882e-05,2.19e-06,0.0,0 STARLINK-3992,1 52627U 22052AF  22322.62277229  .00000219  00000-0  31882-4 0  9999,2 52627  53.2175 287.8639 0002482  33.1323 326.9825 15.08836988 28776,6917.89,95.438,541.472,538.038,0.0
52627.0,STARLINK-3992,PAYLOAD,2022-11-19 06:50:38,15.08840962,0.0002553,53.2172,284.8897,32.5249,327.59,7.1664e-05,8.52e-06,0.0,0 STARLINK-3992,1 52627U 22052AF  22323.28517253  .00000852  00000-0  71664-4 0  9991,2 52627  53.2172 284.8897 0002553  32.5249 327.5900 15.08840962 28874,6917.877,95.437,541.509,537.976,0.0
52627.0,STARLINK-3992,PAYLOAD,2022-11-19 14:47:35,15.088341,0.000262,53.2175,283.4025,32.4513,327.664,3.0347000000000008e-06,-2.4e-06,0.0,0 STARLINK-3992,1 52627U 22052AF  22323.61637935 -.00000240  00000-0  30347-5 0  9994,2 52627  53.2175 283.4025 0002620  32.4513 327.6640 15.08834100 29299,6917.898,95.438,541.576,537.951,0.0
52627.0,STARLINK-3992,PAYLOAD,2022-11-19 21:09:07,15.08834917,0.0002072,53.2169,282.2125,26.0056,334.1040000000001,-4.6198e-06,-3.62e-06,0.0,0 STARLINK-3992,1 52627U 22052AF  22323.88133643 -.00000362  00000-0 -46198-5 0  9997,2 52627  53.2169 282.2125 0002072  26.0056 334.1040 15.08834917 28968,6917.896,95.438,541.194,538.328,0.0
52627.0,STARLINK-3992,PAYLOAD,2022-11-20 03:30:39,15.08839214,0.0002009,53.2164,281.0228,32.2254,327.8861,8.594700000000001e-05,1.0800000000000003e-05,0.0,0 STARLINK-3992,1 52627U 22052AF  22324.14629457  .00001080  00000-0  85947-4 0  9990,2 52627  53.2164 281.0228 0002009  32.2254 327.8861 15.08839214 29374,6917.8830000000025,95.438,541.138,538.3580000000002,0.0
52627.0,STARLINK-3992,PAYLOAD,2022-11-20 06:41:26,15.08839542,0.0002194,53.2151,280.428,32.5723,327.5404,0.00013992,1.939e-05,0.0,0 STARLINK-3992,1 52627U 22052AF  22324.27877555  .00001939  00000-0  13992-3 0  9991,2 52627  53.2151 280.4280 0002194  32.5723 327.5404 15.08839542 29026,6917.882,95.438,541.265,538.229,0.0
52627.0,STARLINK-3992,PAYLOAD,2022-11-20 20:59:54,15.0884453,0.0002442,53.2161,277.7519,37.7768,322.3395,0.00024076,3.546e-05,0.0,0 STARLINK-3992,1 52627U 22052AF  22324.87493538  .00003546  00000-0  24076-3 0  9993,2 52627  53.2161 277.7519 0002442  37.7768 322.3395 15.08844530 29118,6917.8669999999975,95.437,541.4209999999998,538.0419999999998,0.0
52627.0,STARLINK-3992,PAYLOAD,2022-11-21 06:32:13,15.08847431,0.000282,53.2164,275.9686,30.0129,330.1024,0.0002056,2.986e-05,0.0,0 STARLINK-3992,1 52627U 22052AF  22325.27237434  .00002986  00000-0  20560-3 0  9990,2 52627  53.2164 275.9686 0002820  30.0129 330.1024 15.08847431 29549,6917.858,95.437,541.674,537.7719999999998,0.0
52627.0,STARLINK-3992,PAYLOAD,2022-11-22 01:36:51,15.08842117,0.000262,53.2163,272.4004,32.7061,327.4093,0.00013492,1.86e-05,0.0,0 STARLINK-3992,1 52627U 22052AF  22326.06725707  .00001860  00000-0  13492-3 0  9999,2 52627  53.2163 272.4004 0002620  32.7061 327.4093 15.08842117 29660,6917.874,95.437,541.5509999999998,537.9259999999998,0.0
52627.0,STARLINK-3992,PAYLOAD,2022-11-22 07:58:23,15.08850659,0.0002618,53.2166,271.2108,32.8387,327.2768,0.00021709,3.169e-05,0.0,0 STARLINK-3992,1 52627U 22052AF  22326.33221202  .00003169  00000-0  21709-3 0  9994,2 52627  53.2166 271.2108 0002618  32.8387 327.2768 15.08850659 29335,6917.848000000001,95.437,541.524,537.9019999999998,0.0
52627.0,STARLINK-3992,PAYLOAD,2022-11-23 03:03:01,15.08831182,0.0002449,53.2168,267.6425,33.7156,326.3991,-9.2315e-05,-1.757e-05,0.0,0 STARLINK-3992,1 52627U 22052AF  22327.12710063 -.00001757  00000-0 -92315-4 0  9995,2 52627  53.2168 267.6425 0002449  33.7156 326.3991 15.08831182 29826,6917.906999999997,95.438,541.467,538.078,0.0
52627.0,STARLINK-3992,PAYLOAD,2022-11-23 12:35:20,15.08837461,0.0002546,53.217,265.8584,31.0015,329.1127,-3.9811e-06,-3.52e-06,0.0,0 STARLINK-3992,1 52627U 22052AF  22327.52454130 -.00000352  00000-0 -39811-5 0  9992,2 52627  53.2170 265.8584 0002546  31.0015 329.1127 15.08837461 29512,6917.888000000001,95.438,541.514,537.992,0.0
52627.0,STARLINK-3992,PAYLOAD,2022-11-24 02:53:48,15.08845549,0.000253,53.2169,263.182,29.5191,330.5944,3.0346e-05,1.95e-06,0.0,0 STARLINK-3992,1 52627U 22052AF  22328.12069524  .00000195  00000-0  30346-4 0  9994,2 52627  53.2169 263.1820 0002530  29.5191 330.5944 15.08845549 29973,6917.863,95.437,541.479,537.9780000000002,0.0
52627.0,STARLINK-3992,PAYLOAD,2022-11-24 07:39:57,15.08846984,0.0002562,53.2171,262.2905,30.5601,329.5540000000001,6.3879e-05,7.29e-06,0.0,0 STARLINK-3992,1 52627U 22052AF  22328.31941334  .00000729  00000-0  63879-4 0  9993,2 52627  53.2171 262.2905 0002562  30.5601 329.5540 15.08846984 29630,6917.859,95.437,541.496,537.952,0.0
52627.0,STARLINK-3992,PAYLOAD,2022-11-25 02:44:35,15.08835526,0.000263,53.2168,258.7219,28.1492,331.9642,0.00013834,1.914e-05,0.0,0 STARLINK-3992,1 52627U 22052AF  22329.11429982  .00001914  00000-0  13834-3 0  9994,2 52627  53.2168 258.7219 0002630  28.1492 331.9642 15.08835526 30127,6917.894,95.438,541.578,537.94,0.0
52627.0,STARLINK-3992,PAYLOAD,2022-11-25 12:16:54,15.08841452,0.0002659,53.2169,256.9376,28.3011,331.8126,0.00016125,2.279e-05,0.0,0 STARLINK-3992,1 52627U 22052AF  22329.51173635  .00002279  00000-0  16125-3 0  9990,2 52627  53.2169 256.9376 0002659  28.3011 331.8126 15.08841452 29817,6917.876,95.437,541.58,537.901,0.0
